start=new Date('2022-08-07T00:00:00.000Z').valueOf();
sats=[{"TLE_LINE2":"2 52112  53.2147 203.3985 0002278  55.4279 230.2387 15.08846320  1302","COUNTRY_CODE":"US","MEAN_MOTION":"15.08846320","OBJECT_TYPE":"PAYLOAD","TIME_SYSTEM":"UTC","RA_OF_ASC_NODE":"203.3985","OBJECT_NAME":"STARLINK-3734","SEMIMAJOR_AXIS":"6917.861","CLASSIFICATION_TYPE":"U","MEAN_ANOMALY":"230.2387","INCLINATION":"53.2147","APOAPSIS":"541.302","GP_ID":"209727667","DECAY_DATE":null,"TLE_LINE1":"1 52112U 22029AA  22218.91667824  .00007793  00000-0  50710-3 0  9996","MEAN_MOTION_DOT":"0.00007793","CENTER_NAME":"EARTH","BSTAR":"0.00050710000000","MEAN_MOTION_DDOT":"0.0000000000000","RCS_SIZE":"LARGE","NORAD_CAT_ID":"52112","MEAN_ELEMENT_THEORY":"SGP4","REF_FRAME":"TEME","REV_AT_EPOCH":"130","OBJECT_ID":"2022-029AA","FILE":"3530813","ELEMENT_SET_NO":"999","LAUNCH_DATE":"2022-03-19","PERIOD":"95.437","PERIAPSIS":"538.150","ECCENTRICITY":"0.00022780","EPOCH":"2022-08-06T22:00:00.999936","ARG_OF_PERICENTER":"55.4279","EPHEMERIS_TYPE":"0","SITE":"AFETR"},{"ARG_OF_PERICENTER":"55.6559","EPOCH":"2022-08-06T22:00:00.999936","EPHEMERIS_TYPE":"0","SITE":"AFETR","CENTER_NAME":"EARTH","BSTAR":"0.00224600000000","MEAN_MOTION_DOT":"0.00035623","RCS_SIZE":"LARGE","MEAN_MOTION_DDOT":"0.0000000000000","REF_FRAME":"TEME","MEAN_ELEMENT_THEORY":"SGP4","NORAD_CAT_ID":"52113","OBJECT_ID":"2022-029AB","REV_AT_EPOCH":"2290","FILE":"3530661","PERIAPSIS":"538.133","ECCENTRICITY":"0.00024010","PERIOD":"95.439","LAUNCH_DATE":"2022-03-19","ELEMENT_SET_NO":"999","CLASSIFICATION_TYPE":"U","SEMIMAJOR_AXIS":"6917.929","MEAN_ANOMALY":"309.9429","APOAPSIS":"541.455","INCLINATION":"53.2159","GP_ID":"209700346","TLE_LINE1":"1 52113U 22029AB  22218.91667824  .00035623  00000-0  22460-2 0  9990","DECAY_DATE":null,"TLE_LINE2":"2 52113  53.2159 203.3924 0002401  55.6559 309.9429 15.08824025 22908","COUNTRY_CODE":"US","MEAN_MOTION":"15.08824025","RA_OF_ASC_NODE":"203.3924","OBJECT_TYPE":"PAYLOAD","TIME_SYSTEM":"UTC","OBJECT_NAME":"STARLINK-3736"},{"SITE":"AFETR","EPHEMERIS_TYPE":"0","ARG_OF_PERICENTER":"50.3006","EPOCH":"2022-08-06T22:00:00.999936","OBJECT_ID":"2022-029AC","REV_AT_EPOCH":"2291","PERIAPSIS":"538.208","ECCENTRICITY":"0.00023040","PERIOD":"95.439","LAUNCH_DATE":"2022-03-19","ELEMENT_SET_NO":"999","FILE":"3530661","MEAN_MOTION_DDOT":"0.0000000000000","RCS_SIZE":"LARGE","BSTAR":"0.00204820000000","CENTER_NAME":"EARTH","MEAN_MOTION_DOT":"0.00032444","REF_FRAME":"TEME","MEAN_ELEMENT_THEORY":"SGP4","NORAD_CAT_ID":"52114","GP_ID":"209699854","APOAPSIS":"541.395","INCLINATION":"53.2157","DECAY_DATE":null,"TLE_LINE1":"1 52114U 22029AC  22218.91667824  .00032444  00000-0  20482-2 0  9991","CLASSIFICATION_TYPE":"U","SEMIMAJOR_AXIS":"6917.936","MEAN_ANOMALY":"255.3606","OBJECT_NAME":"STARLINK-3737","RA_OF_ASC_NODE":"203.3979","OBJECT_TYPE":"PAYLOAD","TIME_SYSTEM":"UTC","TLE_LINE2":"2 52114  53.2157 203.3979 0002304  50.3006 255.3606 15.08821646 22916","MEAN_MOTION":"15.08821646","COUNTRY_CODE":"US"},{"APOAPSIS":"541.251","INCLINATION":"53.2176","GP_ID":"209727917","TLE_LINE1":"1 52115U 22029AD  22218.91667824  .00034903  00000-0  22015-2 0  9998","DECAY_DATE":null,"CLASSIFICATION_TYPE":"U","SEMIMAJOR_AXIS":"6917.945","MEAN_ANOMALY":"343.8269","TIME_SYSTEM":"UTC","OBJECT_TYPE":"PAYLOAD","RA_OF_ASC_NODE":"203.3922","OBJECT_NAME":"STARLINK-3685","TLE_LINE2":"2 52115  53.2176 203.3922 0002083  61.8479 343.8269 15.08818960  1304","COUNTRY_CODE":"US","MEAN_MOTION":"15.08818960","EPHEMERIS_TYPE":"0","SITE":"AFETR","ARG_OF_PERICENTER":"61.8479","EPOCH":"2022-08-06T22:00:00.999936","OBJECT_ID":"2022-029AD","REV_AT_EPOCH":"130","FILE":"3530813","PERIAPSIS":"538.369","ECCENTRICITY":"0.00020830","ELEMENT_SET_NO":"999","LAUNCH_DATE":"2022-03-19","PERIOD":"95.439","BSTAR":"0.00220150000000","CENTER_NAME":"EARTH","MEAN_MOTION_DOT":"0.00034903","MEAN_MOTION_DDOT":"0.0000000000000","RCS_SIZE":"LARGE","MEAN_ELEMENT_THEORY":"SGP4","REF_FRAME":"TEME","NORAD_CAT_ID":"52115"},{"SEMIMAJOR_AXIS":"6917.871","CLASSIFICATION_TYPE":"U","MEAN_ANOMALY":"290.0388","GP_ID":"209728168","INCLINATION":"53.2167","APOAPSIS":"541.491","TLE_LINE1":"1 52116U 22029AE  22218.91667824  .00032548  00000-0  20535-2 0  9997","DECAY_DATE":null,"TLE_LINE2":"2 52116  53.2167 203.3930 0002537  55.5838 290.0388 15.08843111  1308","MEAN_MOTION":"15.08843111","COUNTRY_CODE":"US","OBJECT_NAME":"STARLINK-3735","OBJECT_TYPE":"PAYLOAD","TIME_SYSTEM":"UTC","RA_OF_ASC_NODE":"203.3930","EPOCH":"2022-08-06T22:00:00.999936","ARG_OF_PERICENTER":"55.5838","SITE":"AFETR","EPHEMERIS_TYPE":"0","RCS_SIZE":"LARGE","MEAN_MOTION_DDOT":"0.0000000000000","MEAN_MOTION_DOT":"0.00032548","BSTAR":"0.00205350000000","CENTER_NAME":"EARTH","NORAD_CAT_ID":"52116","MEAN_ELEMENT_THEORY":"SGP4","REF_FRAME":"TEME","REV_AT_EPOCH":"130","OBJECT_ID":"2022-029AE","LAUNCH_DATE":"2022-03-19","ELEMENT_SET_NO":"999","PERIOD":"95.437","ECCENTRICITY":"0.00025370","PERIAPSIS":"537.981","FILE":"3530813"},{"OBJECT_NAME":"STARLINK-3738","RA_OF_ASC_NODE":"203.3926","OBJECT_TYPE":"PAYLOAD","TIME_SYSTEM":"UTC","MEAN_MOTION":"15.08836951","COUNTRY_CODE":"US","TLE_LINE2":"2 52117  53.2166 203.3926 0002278  54.4679  31.1495 15.08836951 22913","DECAY_DATE":null,"TLE_LINE1":"1 52117U 22029AF  22218.91667824  .00032780  00000-0  20683-2 0  9990","GP_ID":"209699878","APOAPSIS":"541.331","INCLINATION":"53.2166","MEAN_ANOMALY":"31.1495","CLASSIFICATION_TYPE":"U","SEMIMAJOR_AXIS":"6917.890","PERIAPSIS":"538.179","ECCENTRICITY":"0.00022780","ELEMENT_SET_NO":"999","LAUNCH_DATE":"2022-03-19","PERIOD":"95.438","FILE":"3530649","OBJECT_ID":"2022-029AF","REV_AT_EPOCH":"2291","MEAN_ELEMENT_THEORY":"SGP4","REF_FRAME":"TEME","NORAD_CAT_ID":"52117","MEAN_MOTION_DDOT":"0.0000000000000","RCS_SIZE":"LARGE","CENTER_NAME":"EARTH","BSTAR":"0.00206830000000","MEAN_MOTION_DOT":"0.00032780","SITE":"AFETR","EPHEMERIS_TYPE":"0","ARG_OF_PERICENTER":"54.4679","EPOCH":"2022-08-06T22:00:00.999936"},{"DECAY_DATE":null,"TLE_LINE1":"1 52118U 22029AG  22218.91667824  .00035382  00000-0  22310-2 0  9991","INCLINATION":"53.2159","APOAPSIS":"541.393","GP_ID":"209727166","MEAN_ANOMALY":"331.4720","SEMIMAJOR_AXIS":"6917.931","CLASSIFICATION_TYPE":"U","OBJECT_TYPE":"PAYLOAD","TIME_SYSTEM":"UTC","RA_OF_ASC_NODE":"203.3920","OBJECT_NAME":"STARLINK-3743","COUNTRY_CODE":"US","MEAN_MOTION":"15.08823541","TLE_LINE2":"2 52118  53.2159 203.3920 0002309  54.1867 331.4720 15.08823541  1309","EPHEMERIS_TYPE":"0","SITE":"AFETR","EPOCH":"2022-08-06T22:00:00.999936","ARG_OF_PERICENTER":"54.1867","FILE":"3530813","LAUNCH_DATE":"2022-03-19","PERIOD":"95.439","ELEMENT_SET_NO":"999","ECCENTRICITY":"0.00023090","PERIAPSIS":"538.198","REV_AT_EPOCH":"130","OBJECT_ID":"2022-029AG","NORAD_CAT_ID":"52118","MEAN_ELEMENT_THEORY":"SGP4","REF_FRAME":"TEME","MEAN_MOTION_DOT":"0.00035382","CENTER_NAME":"EARTH","BSTAR":"0.00223100000000","RCS_SIZE":"LARGE","MEAN_MOTION_DDOT":"0.0000000000000"},{"SITE":"AFETR","EPHEMERIS_TYPE":"0","EPOCH":"2022-08-06T22:00:00.999936","ARG_OF_PERICENTER":"58.6874","REV_AT_EPOCH":"130","OBJECT_ID":"2022-029AH","PERIOD":"95.438","LAUNCH_DATE":"2022-03-19","ELEMENT_SET_NO":"999","ECCENTRICITY":"0.00022880","PERIAPSIS":"538.195","FILE":"3530813","MEAN_MOTION_DDOT":"0.0000000000000","RCS_SIZE":"LARGE","MEAN_MOTION_DOT":"0.00029980","CENTER_NAME":"EARTH","BSTAR":"0.00189430000000","NORAD_CAT_ID":"52119","MEAN_ELEMENT_THEORY":"SGP4","REF_FRAME":"TEME","GP_ID":"209727417","INCLINATION":"53.2160","APOAPSIS":"541.360","DECAY_DATE":null,"TLE_LINE1":"1 52119U 22029AH  22218.91667824  .00029980  00000-0  18943-2 0  9996","SEMIMAJOR_AXIS":"6917.913","CLASSIFICATION_TYPE":"U","MEAN_ANOMALY":"66.8846","OBJECT_NAME":"STARLINK-3558","OBJECT_TYPE":"PAYLOAD","TIME_SYSTEM":"UTC","RA_OF_ASC_NODE":"203.3927","TLE_LINE2":"2 52119  53.2160 203.3927 0002288  58.6874  66.8846 15.08829487  1305","MEAN_MOTION":"15.08829487","COUNTRY_CODE":"US"},{"OBJECT_NAME":"STARLINK-3534","OBJECT_TYPE":"PAYLOAD","TIME_SYSTEM":"UTC","RA_OF_ASC_NODE":"203.3922","MEAN_MOTION":"15.08848871","COUNTRY_CODE":"US","TLE_LINE2":"2 52120  53.2162 203.3922 0002404  53.7012  11.9549 15.08848871  1303","TLE_LINE1":"1 52120U 22029AJ  22218.91667824  .00002965  00000-0  20425-3 0  9991","DECAY_DATE":null,"GP_ID":"209727668","APOAPSIS":"541.381","INCLINATION":"53.2162","MEAN_ANOMALY":"11.9549","CLASSIFICATION_TYPE":"U","SEMIMAJOR_AXIS":"6917.853","PERIAPSIS":"538.055","ECCENTRICITY":"0.00024040","PERIOD":"95.437","LAUNCH_DATE":"2022-03-19","ELEMENT_SET_NO":"999","FILE":"3530813","OBJECT_ID":"2022-029AJ","REV_AT_EPOCH":"130","MEAN_ELEMENT_THEORY":"SGP4","REF_FRAME":"TEME","NORAD_CAT_ID":"52120","MEAN_MOTION_DDOT":"0.0000000000000","RCS_SIZE":"LARGE","BSTAR":"0.00020425000000","CENTER_NAME":"EARTH","MEAN_MOTION_DOT":"0.00002965","SITE":"AFETR","EPHEMERIS_TYPE":"0","ARG_OF_PERICENTER":"53.7012","EPOCH":"2022-08-06T22:00:00.999936"},{"OBJECT_NAME":"STARLINK-3678","TIME_SYSTEM":"UTC","OBJECT_TYPE":"PAYLOAD","RA_OF_ASC_NODE":"193.4066","MEAN_MOTION":"15.08831589","COUNTRY_CODE":"US","TLE_LINE2":"2 52121  53.2139 193.4066 0002472  54.9542 165.6826 15.08831589  1305","TLE_LINE1":"1 52121U 22029AK  22218.91667824  .00023261  00000-0  14751-2 0  9998","DECAY_DATE":null,"GP_ID":"209726416","APOAPSIS":"541.481","INCLINATION":"53.2139","MEAN_ANOMALY":"165.6826","CLASSIFICATION_TYPE":"U","SEMIMAJOR_AXIS":"6917.906","PERIAPSIS":"538.061","ECCENTRICITY":"0.00024720","ELEMENT_SET_NO":"999","LAUNCH_DATE":"2022-03-19","PERIOD":"95.438","FILE":"3530813","OBJECT_ID":"2022-029AK","REV_AT_EPOCH":"130","REF_FRAME":"TEME","MEAN_ELEMENT_THEORY":"SGP4","NORAD_CAT_ID":"52121","MEAN_MOTION_DDOT":"0.0000000000000","RCS_SIZE":"LARGE","CENTER_NAME":"EARTH","BSTAR":"0.00147510000000","MEAN_MOTION_DOT":"0.00023261","SITE":"AFETR","EPHEMERIS_TYPE":"0","ARG_OF_PERICENTER":"54.9542","EPOCH":"2022-08-06T22:00:00.999936"}];
